ONEWEB-0102             
1 47258U 20100A   25330.72511524 -.00000183  00000+0 -54288-3 0  9992
2 47258  87.8955  30.9080 0001753  94.1305 266.0024 13.12441920238176
ONEWEB-0109             
1 47259U 20100B   25330.73322052 -.00000416  00000+0 -11917-2 0  9990
2 47259  87.8957  30.8745 0001800  96.5222 263.6112 13.12441775238004
ONEWEB-0110             
1 47260U 20100C   25330.68293720  .00000108  00000+0  26577-3 0  9990
2 47260  87.8957  30.8678 0002070  99.5939 260.5423 13.12442645238164
ONEWEB-0111             
1 47261U 20100D   25330.71376338  .00000265  00000+0  70108-3 0  9995
2 47261  87.8960  30.8796 0001778  98.7368 261.3962 13.12441200238007
ONEWEB-0114             
1 47262U 20100E   25330.66832933 -.00000325  00000+0 -93793-3 0  9992
2 47262  87.8959  30.8833 0001579  91.3522 268.7788 13.12444141237955
ONEWEB-0117             
1 47263U 20100F   25330.66022697 -.00000478  00000+0 -13642-2 0  9994
2 47263  87.8956  30.8826 0001821 100.3897 259.7437 13.12442622237965
ONEWEB-0118             
1 47264U 20100G   25330.69267591  .00000364  00000+0  97545-3 0  9999
2 47264  87.8960  30.8753 0001437 100.0641 260.0649 13.12443703238161
ONEWEB-0119             
1 47265U 20100H   25330.72024645  .00000007  00000+0 -16618-4 0  9993
2 47265  87.8951  30.9062 0001851  99.4390 260.6947 13.12441487238140
